{
    "links": {
        "self": "http://www.neowsapp.com/rest/v1/neo/54051170?api_key=iIulBulltgU6a56xZRHN4H3l9WmuAYTsLGpBGhQ2"
    },
    "id": "54051170",
    "neo_reference_id": "54051170",
    "name": "(2020 OV7)",
    "designation": "2020 OV7",
    "nasa_jpl_url": "http://ssd.jpl.nasa.gov/sbdb.cgi?sstr=54051170",
    "absolute_magnitude_h": 24.549,
    "estimated_diameter": {
        "kilometers": {
            "estimated_diameter_min": 0.0327156066,
            "estimated_diameter_max": 0.0731543202
        },
        "meters": {
            "estimated_diameter_min": 32.7156065532,
            "estimated_diameter_max": 73.1543201781
        },
        "miles": {
            "estimated_diameter_min": 0.0203285292,
            "estimated_diameter_max": 0.0454559731
        },
        "feet": {
            "estimated_diameter_min": 107.3346706041,
            "estimated_diameter_max": 240.0076198132
        }
    },
    "is_potentially_hazardous_asteroid": false,
    "close_approach_data": [
        {
            "close_approach_date": "2020-08-01",
            "close_approach_date_full": "2020-Aug-01 20:04",
            "epoch_date_close_approach": 1596312240000,
            "relative_velocity": {
                "kilometers_per_second": "14.0849978717",
                "kilometers_per_hour": "50705.9923381279",
                "miles_per_hour": "31506.7317392107"
            },
            "miss_distance": {
                "astronomical": "0.1063479846",
                "lunar": "41.3693660094",
                "kilometers": "15909431.974952802",
                "miles": "9885662.6249685876"
            },
            "orbiting_body": "Earth"
        }
    ],
    "orbital_data": {
        "orbit_id": "1",
        "orbit_determination_date": "2020-08-18 12:42:04",
        "first_observation_date": "2020-07-30",
        "last_observation_date": "2020-08-08",
        "data_arc_in_days": 9,
        "observations_used": 16,
        "orbit_uncertainty": "9",
        "minimum_orbit_intersection": ".0869179",
        "jupiter_tisserand_invariant": "3.918",
        "epoch_osculation": "2459063.5",
        "eccentricity": ".3802831506568425",
        "semi_major_axis": "1.769624396152042",
        "inclination": "25.00882559379761",
        "ascending_node_longitude": "133.6226233444255",
        "orbital_period": "859.8448059757843",
        "perihelion_distance": "1.096666055304131",
        "perihelion_argument": "169.2377058020686",
        "aphelion_distance": "2.442582736999952",
        "perihelion_time": "2459053.234504802611",
        "mean_anomaly": "4.297959638037423",
        "mean_motion": ".418680205425511",
        "equinox": "J2000",
        "orbit_class": {
            "orbit_class_type": "AMO",
            "orbit_class_description": "Near-Earth asteroid orbits similar to that of 1221 Amor",
            "orbit_class_range": "1.017 AU < q (perihelion) < 1.3 AU"
        }
    },
    "is_sentry_object": false
}